satname,norad_id,inclination_deg,eccentricity,mean_motion_rev_per_day,perigee_km,apogee_km,l1,l2
STARLINK-1316,45415,53.1554,0.0001653,15.4110373,441.72309459817825,443.9781131000109,1 45415U 20019BH  26182.51374388  .00056516  00000+0  13450-2 0  9996,2 45415  53.1554 316.2703 0001653 171.5871 188.5163 15.41103730347484
STARLINK-1286,45417,53.0456,0.0004422,15.6670205,365.36482490389153,371.33141634457115,1 45417U 20019BK  26181.72257366  .00062083  00000+0  58023-3 0  9998,2 45417  53.0456 301.9994 0004422 330.7546  29.3221 15.66702050347848
STARLINK-1308,45419,53.0462,0.0005002,15.68153388,360.8123530256489,367.55737181681525,1 45419U 20019BM  26182.74662441  .00059222  00000+0  52222-3 0  9993,2 45419  53.0462 316.1022 0005002 103.3315 256.8258 15.68153388347483
STARLINK-1329,45531,53.0384,0.0003334,15.76671776,337.6383663383767,342.1179388421233,1 45531U 20025A   26182.87048112  .00086391  00000+0  52763-3 0  9999,2 45531  53.0384 237.7909 0003334 347.3737  12.7198 15.76671776343378
STARLINK-1338,45532,53.0414,0.0002591,15.73664555,346.6911778924423,350.1768870014557,1 45532U 20025B   26182.89678604  .00073336  00000+0  51197-3 0  9992,2 45532  53.0414 245.0613 0002591  48.2843 311.8396 15.73664555343272
STARLINK-1350,45535,53.069,0.0001548,15.39275037,447.1951331196278,449.3085831101007,1 45535U 20025E   26182.80714442  .00039606  00000+0  10062-2 0  9994,2 45535  53.0690 216.0654 0001548  40.6001 319.5118 15.39275037343718
STARLINK-1362,45538,53.1567,0.0004241,15.39503891,444.6805416755642,450.4701108707095,1 45538U 20025H   26182.51343846  .00025468  00000+0  64690-3 0  9999,2 45538  53.1567 288.8966 0004241 303.2231  56.8367 15.39503891342655
STARLINK-1368,45540,53.1554,0.0002586,15.39790705,444.9627813092766,448.4926013276263,1 45540U 20025K   26182.45978157  .00094218  00000+0  23233-2 0  9990,2 45540  53.1554 289.4914 0002586 291.2016  68.8712 15.39790705342638
STARLINK-1371,45542,53.0418,0.0002172,15.70843878,355.0212178652646,357.9467372179088,1 45542U 20025M   26182.92980732  .00065977  00000+0  51993-3 0  9991,2 45542  53.0418 255.2838 0002172  42.3269 317.7915 15.70843878343132
STARLINK-1372,45543,53.1572,0.0001863,15.40063458,444.65053341110615,447.1931777406935,1 45543U 20025N   26182.67108951  .00048102  00000+0  11875-2 0  9994,2 45543  53.1572 287.9172 0001863 287.2064  72.8737 15.40063458341771
STARLINK-1373,45544,53.043,0.0002849,15.72590761,349.57842963977055,353.41297435336855,1 45544U 20025P   26182.90789729  .00070261  00000+0  51385-3 0  9991,2 45544  53.0430 250.1656 0002849  42.1282 317.9954 15.72590761343209
STARLINK-1327,45555,53.0376,0.0002433,15.74260925,345.0989665443685,348.37128932181986,1 45555U 20025AA  26182.83292673  .00072865  00000+0  49587-3 0  9995,2 45555  53.0376 227.8022 0002433  55.7239 304.4009 15.74260925343502
STARLINK-1356,45564,53.0408,0.000402,15.67228346,364.1261836607373,369.54914329017265,1 45564U 20025AK  26182.47436385  .00050207  00000+0  46106-3 0  9995,2 45564  53.0408 243.4894 0004020  13.7174 346.3949 15.67228346343258
STARLINK-1357,45565,53.0408,0.0001403,15.72267993,351.47238307326006,353.3609764357989,1 45565U 20025AL  26182.75481694  .00069269  00000+0  51376-3 0  9993,2 45565  53.0408 198.0228 0001403 170.5834 189.5210 15.72267993343921
STARLINK-1361,45567,53.0396,0.0002372,15.70835299,354.91104002776774,358.105955851991,1 45567U 20025AN  26182.84036399  .00065062  00000+0  51302-3 0  9999,2 45567  53.0396 239.8421 0002372  55.9902 304.1340 15.70835299343349
STARLINK-1376,45570,53.1554,0.0001408,15.40575056,443.45039021865614,445.3716197368585,1 45570U 20025AR  26182.51169739  .00050516  00000+0  12254-2 0  9992,2 45570  53.1554 264.9961 0001408 303.6820  56.4051 15.40575056342983
STARLINK-1320,45572,53.0365,0.0006678,15.95586901,282.22878379723625,291.1303127791307,1 45572U 20025AT  26183.00002315  .00232795  32401-4  57304-3 0  9997,2 45572  53.0365 132.2666 0006678  64.6058 305.0487 15.95586901  5774
STARLINK-1321,45573,53.0392,0.0002052,15.71261889,353.90779454974745,356.6711927827473,1 45573U 20025AU  26182.84171553  .00063757  00000+0  49402-3 0  9995,2 45573  53.0392 223.6374 0002052  62.4663 297.6563 15.71261889343265
STARLINK-1331,45578,53.0432,0.0001782,15.71070113,354.6374415829532,357.0374300718813,1 45578U 20025AZ  26182.93183743  .00061625  00000+0  48164-3 0  9990,2 45578  53.0432 230.1417 0001782  55.3442 304.7743 15.71070113343494
STARLINK-1333,45580,53.1566,0.0003008,15.37524122,451.378481305087,455.4883540683668,1 45580U 20025BB  26182.93153484  .00055305  00000+0  14801-2 0  9990,2 45580  53.1566 265.0532 0003008 335.9409  24.1454 15.37524122343021
STARLINK-1335,45581,53.1538,0.0002327,15.39317151,446.5388775772526,449.7158210054122,1 45581U 20025BC  26182.93438532  .00047390  00000+0  11992-2 0  9994,2 45581  53.1538 261.4642 0002327 286.2973  73.7776 15.39317151343065
STARLINK-1337,45582,53.0407,0.0001916,15.78167707,334.3458259546878,336.9185423060462,1 45582U 20025BD  26182.90959429  .00087763  00000+0  50149-3 0  9991,2 45582  53.0407 218.0176 0001916  74.8060 285.3172 15.78167707343649
STARLINK-1347,45586,53.0356,0.0001806,15.71170703,354.3339124226977,356.7661201729834,1 45586U 20025BH  26182.74318467  .00068500  00000+0  53216-3 0  9994,2 45586  53.0356 190.4399 0001806  44.8584 315.2579 15.71170703344011
STARLINK-1364,45589,53.0389,0.0003628,15.71957054,350.86203613306316,355.7463698699612,1 45589U 20025BL  26182.29385064  .00074180  00000+0  55667-3 0  9997,2 45589  53.0389 229.2447 0003628  16.2363 343.8769 15.71957054343432
STARLINK-1365,45590,53.0443,0.0001511,15.6740995,365.2975734829852,367.3357473791675,1 45590U 20025BM  26182.46091293  .00062154  00000+0  56470-3 0  9997,2 45590  53.0443 263.8150 0001511  39.7831 320.3295 15.67409950342984
STARLINK-1443,45660,53.1316,0.0001863,15.34485192,461.17564197835964,463.7244447107096,1 45660U 20035D   26182.90642068  .00037410  00000+0  11098-2 0  9990,2 45660  53.1316 254.3092 0001863  28.9868 331.1237 15.34485192336246
STARLINK-1446,45663,53.0202,0.00021,15.49052907,418.06787646156045,420.9228820608514,1 45663U 20035G   26182.28383377  .00041019  00000+0  74829-3 0  9991,2 45663  53.0202 177.4413 0002100 348.9777  11.1183 15.49052907337249
STARLINK-1448,45665,53.0393,0.0002276,15.7550699,341.65909559523243,344.7186431309665,1 45665U 20035J   26182.94095578  .00085357  00000+0  54883-3 0  9990,2 45665  53.0393 213.2081 0002276  66.7906 293.3352 15.75506990336791
STARLINK-1451,45668,53.0519,9.23e-05,15.15354909,519.2646080445984,520.5379859142213,1 45668U 20035M   26182.44915629  .00030102  00000+0  15868-2 0  9993,2 45668  53.0519 270.3093 0000923 346.2447  13.8521 15.15354909335960
STARLINK-1452,45669,53.0207,0.0007544,15.63144672,373.48266548380707,383.67719999192195,1 45669U 20035N   26182.28338865  .00125055  00000+0  13286-2 0  9991,2 45669  53.0207 193.3743 0007544  24.7730 335.3644 15.63144672337024
STARLINK-1453,45670,53.036,0.0001895,15.76081436,340.2822076553921,342.8289711467751,1 45670U 20035P   26182.96561657  .00103059  00000+0  64404-3 0  9994,2 45670  53.0360 173.2852 0001895  96.9107 263.2128 15.76081436337259
STARLINK-1454,45671,53.0402,0.0001681,15.73907337,346.61165927841193,348.8728998922079,1 45671U 20035Q   26182.27193451  .00093303  00000+0  64197-3 0  9991,2 45671  53.0402 218.0463 0001681  57.7533 302.3648 15.73907337336664
STARLINK-1456,45673,53.0393,0.000171,15.70664343,355.8454609962819,358.1488768820582,1 45673U 20035S   26182.77886775  .00089105  00000+0  70388-3 0  9990,2 45673  53.0393 210.4650 0001710  70.0877 290.0324 15.70664343336838
STARLINK-1458,45675,53.0416,0.0005289,15.61560287,379.5734339534165,386.72552279023876,1 45675U 20035U   26182.42448637  .00129940  00000+0  14681-2 0  9990,2 45675  53.0416 228.3312 0005289  15.7040 344.4136 15.61560287336514
STARLINK-1460,45676,53.1556,0.0003959,15.37490308,450.8289233496225,456.23824011623856,1 45676U 20035V   26182.90972600  .00068509  00000+0  18297-2 0  9996,2 45676  53.1556 252.3740 0003959 341.7871  18.2990 15.37490308336231
STARLINK-1392,45677,53.1506,0.0004446,15.40773073,440.79340090973346,446.8594908057912,1 45677U 20035W   26182.48557473  .00064221  00000+0  15419-2 0  9997,2 45677  53.1506 252.4217 0004446 333.3053  26.7723 15.40773073336233
STARLINK-1394,45679,53.0366,0.0001419,15.69258866,360.06174641030066,361.97431860852794,1 45679U 20035Y   26182.34693065  .00064558  00000+0  54353-3 0  9996,2 45679  53.0366 202.9990 0001419  59.4220 300.6936 15.69258866336896
STARLINK-1402,45685,53.0379,0.0001603,15.63693811,375.9151065318256,378.0808027982903,1 45685U 20035AE  26183.00002315  .00868262  00000+0  83439-2 0  9999,2 45685  53.0379 191.9411 0001603  98.6228  10.7549 15.63693811  5956
STARLINK-1404,45686,53.1538,0.0004111,15.46696295,423.6010563239215,429.19574533048217,1 45686U 20035AF  26181.41359723  .00034129  00000+0  67762-3 0  9990,2 45686  53.1538 238.1129 0004111 314.9072  45.1602 15.46696295336345
STARLINK-1413,45689,53.1563,0.0004301,15.37203924,451.4433910471762,457.3207239404328,1 45689U 20035AJ  26182.88474792  .00039665  00000+0  10776-2 0  9991,2 45689  53.1563 237.1494 0004301 343.4899  16.5964 15.37203924336408
STARLINK-1417,45693,53.0492,0.0002401,15.17953154,510.37324703678587,513.6819040659666,1 45693U 20035AN  26182.90251961  .00023330  00000+0  11467-2 0  9990,2 45693  53.0492 254.4629 0002401 249.0712 111.0026 15.17953154336213
STARLINK-1420,45695,53.0425,0.0001719,15.73130124,348.8008412028694,351.11396005780534,1 45695U 20035AQ  26182.24794483  .00086263  00000+0  61446-3 0  9997,2 45695  53.0425 186.1130 0001719  96.0258 264.0956 15.73130124337123
STARLINK-1422,45696,53.1547,0.0001738,15.39009897,447.84930462681314,450.2224299154759,1 45696U 20035AR  26182.87737447  .00046779  00000+0  11959-2 0  9995,2 45696  53.1547 237.0194 0001738  61.2090 298.9089 15.39009897336480
